[
    {
        "Altitude(m)": 566779.0298376111,
        "Argument of Periapsis(deg)": -0.03013754771062987,
        "Eccentricity": 0.0,
        "Inclination(deg)": 97.0,
        "Latitude(deg)": 26.798101403859555,
        "Longitude(deg)": 140.39951965320364,
        "Mean Anomaly(deg)": 153.05339102558332,
        "RAAN(deg)": 60.00792940482467,
        "Satellite Name": "Starlink Shell 3 1717",
        "Satellite Number": 1717,
        "Semi-Major Axis(m)": 6938478.169268562,
        "Time(s)": 760
    },
    {
        "Altitude(m)": 566694.3201555526,
        "Argument of Periapsis(deg)": -0.030534094391032898,
        "Eccentricity": 0.0,
        "Inclination(deg)": 97.0,
        "Latitude(deg)": 26.175848228468947,
        "Longitude(deg)": 140.26281172017696,
        "Mean Anomaly(deg)": 153.67886722328836,
        "RAAN(deg)": 60.008033739098686,
        "Satellite Name": "Starlink Shell 3 1717",
        "Satellite Number": 1717,
        "Semi-Major Axis(m)": 6938478.169268562,
        "Time(s)": 770
    },
    {
        "Altitude(m)": 566612.6035243042,
        "Argument of Periapsis(deg)": -0.030930641071435925,
        "Eccentricity": 0.0,
        "Inclination(deg)": 97.0,
        "Latitude(deg)": 25.553478061492804,
        "Longitude(deg)": 140.1271046453559,
        "Mean Anomaly(deg)": 154.3043434209934,
        "RAAN(deg)": 60.00813807337269,
        "Satellite Name": "Starlink Shell 3 1717",
        "Satellite Number": 1717,
        "Semi-Major Axis(m)": 6938478.169268562,
        "Time(s)": 780
    },
    {
        "Altitude(m)": 566533.9456242418,
        "Argument of Periapsis(deg)": -0.031327187751838945,
        "Eccentricity": 0.0,
        "Inclination(deg)": 97.0,
        "Latitude(deg)": 24.930994419702817,
        "Longitude(deg)": 139.9923614619793,
        "Mean Anomaly(deg)": 154.92981961869845,
        "RAAN(deg)": 60.008242407646705,
        "Satellite Name": "Starlink Shell 3 1717",
        "Satellite Number": 1717,
        "Semi-Major Axis(m)": 6938478.169268562,
        "Time(s)": 790
    },
    {
        "Altitude(m)": 566458.410812511,
        "Argument of Periapsis(deg)": -0.031723734432241975,
        "Eccentricity": 0.0,
        "Inclination(deg)": 97.0,
        "Latitude(deg)": 24.308400777702204,
        "Longitude(deg)": 139.85854589502046,
        "Mean Anomaly(deg)": 155.5552958164035,
        "RAAN(deg)": 60.008346741920704,
        "Satellite Name": "Starlink Shell 3 1717",
        "Satellite Number": 1717,
        "Semi-Major Axis(m)": 6938478.169268562,
        "Time(s)": 800
    },
    {
        "Altitude(m)": 566386.0620878582,
        "Argument of Periapsis(deg)": -0.032120281112645,
        "Eccentricity": 0.0,
        "Inclination(deg)": 97.0,
        "Latitude(deg)": 23.68570057108939,
        "Longitude(deg)": 139.72562280515035,
        "Mean Anomaly(deg)": 156.18077201410856,
        "RAAN(deg)": 60.00845107619472,
        "Satellite Name": "Starlink Shell 3 1717",
        "Satellite Number": 1717,
        "Semi-Major Axis(m)": 6938478.169268562,
        "Time(s)": 810
    },
    {
        "Altitude(m)": 566316.9610560795,
        "Argument of Periapsis(deg)": -0.03251682779304802,
        "Eccentricity": 0.0,
        "Inclination(deg)": 97.0,
        "Latitude(deg)": 23.06289719940951,
        "Longitude(deg)": 139.59355863583082,
        "Mean Anomaly(deg)": 156.8062482118136,
        "RAAN(deg)": 60.00855541046872,
        "Satellite Name": "Starlink Shell 3 1717",
        "Satellite Number": 1717,
        "Semi-Major Axis(m)": 6938478.169268562,
        "Time(s)": 820
    },
    {
        "Altitude(m)": 566251.1678961284,
        "Argument of Periapsis(deg)": -0.032913374473451044,
        "Eccentricity": 0.0,
        "Inclination(deg)": 97.0,
        "Latitude(deg)": 22.439994028907517,
        "Longitude(deg)": 139.4623203504617,
        "Mean Anomaly(deg)": 157.43172440951864,
        "RAAN(deg)": 60.008659744742744,
        "Satellite Name": "Starlink Shell 3 1717",
        "Satellite Number": 1717,
        "Semi-Major Axis(m)": 6938478.169268562,
        "Time(s)": 830
    },
    {
        "Altitude(m)": 566188.7413268933,
        "Argument of Periapsis(deg)": -0.03330992115385407,
        "Eccentricity": 0.0,
        "Inclination(deg)": 97.0,
        "Latitude(deg)": 21.8169943950919,
        "Longitude(deg)": 139.33187588513988,
        "Mean Anomaly(deg)": 158.05720060722368,
        "RAAN(deg)": 60.00876407901676,
        "Satellite Name": "Starlink Shell 3 1717",
        "Satellite Number": 1717,
        "Semi-Major Axis(m)": 6938478.169268562,
        "Time(s)": 840
    },
    {
        "Altitude(m)": 566129.7385746557,
        "Argument of Periapsis(deg)": -0.0337064678342571,
        "Eccentricity": 0.0,
        "Inclination(deg)": 97.0,
        "Latitude(deg)": 21.193901605122196,
        "Longitude(deg)": 139.20219460398005,
        "Mean Anomaly(deg)": 158.68267680492872,
        "RAAN(deg)": 60.00886841329077,
        "Satellite Name": "Starlink Shell 3 1717",
        "Satellite Number": 1717,
        "Semi-Major Axis(m)": 6938478.169268562,
        "Time(s)": 850
    },
    {
        "Altitude(m)": 566074.2153412728,
        "Argument of Periapsis(deg)": -0.03410301451466012,
        "Eccentricity": 0.0,
        "Inclination(deg)": 97.0,
        "Latitude(deg)": 20.5707189400329,
        "Longitude(deg)": 139.07324607586202,
        "Mean Anomaly(deg)": 159.3081530026338,
        "RAAN(deg)": 60.008972747564755,
        "Satellite Name": "Starlink Shell 3 1717",
        "Satellite Number": 1717,
        "Semi-Major Axis(m)": 6938478.169268562,
        "Time(s)": 860
    },
    {
        "Altitude(m)": 566022.2257730723,
        "Argument of Periapsis(deg)": -0.034499561195063144,
        "Eccentricity": 0.0,
        "Inclination(deg)": 97.0,
        "Latitude(deg)": 19.947449656798394,
        "Longitude(deg)": 138.9450013748792,
        "Mean Anomaly(deg)": 159.93362920033877,
        "RAAN(deg)": 60.009077081838775,
        "Satellite Name": "Starlink Shell 3 1717",
        "Satellite Number": 1717,
        "Semi-Major Axis(m)": 6938478.169268562,
        "Time(s)": 870
    },
    {
        "Altitude(m)": 565973.8224304839,
        "Argument of Periapsis(deg)": -0.03489610787546617,
        "Eccentricity": 0.0,
        "Inclination(deg)": 97.0,
        "Latitude(deg)": 19.3240969902551,
        "Longitude(deg)": 138.8174318614314,
        "Mean Anomaly(deg)": 160.55910539804384,
        "RAAN(deg)": 60.00918141611279,
        "Satellite Name": "Starlink Shell 3 1717",
        "Satellite Number": 1717,
        "Semi-Major Axis(m)": 6938478.169268562,
        "Time(s)": 880
    },
    {
        "Altitude(m)": 565929.0562584717,
        "Argument of Periapsis(deg)": -0.0352926545558692,
        "Eccentricity": 0.0,
        "Inclination(deg)": 97.0,
        "Latitude(deg)": 18.7006641548829,
        "Longitude(deg)": 138.69050964625694,
        "Mean Anomaly(deg)": 161.18458159574888,
        "RAAN(deg)": 60.009285750386795,
        "Satellite Name": "Starlink Shell 3 1717",
        "Satellite Number": 1717,
        "Semi-Major Axis(m)": 6938478.169268562,
        "Time(s)": 890
    },
    {
        "Altitude(m)": 565887.9765576764,
        "Argument of Periapsis(deg)": -0.035689201236272214,
        "Eccentricity": 0.0,
        "Inclination(deg)": 97.0,
        "Latitude(deg)": 18.077154346458457,
        "Longitude(deg)": 138.5642080563073,
        "Mean Anomaly(deg)": 161.81005779345392,
        "RAAN(deg)": 60.00939008466081,
        "Satellite Name": "Starlink Shell 3 1717",
        "Satellite Number": 1717,
        "Semi-Major Axis(m)": 6938478.169268562,
        "Time(s)": 900
    },
    {
        "Altitude(m)": 565850.6309564455,
        "Argument of Periapsis(deg)": -0.036085747916675244,
        "Eccentricity": 0.0,
        "Inclination(deg)": 97.0,
        "Latitude(deg)": 17.453570743587054,
        "Longitude(deg)": 138.4385005894738,
        "Mean Anomaly(deg)": 162.43553399115896,
        "RAAN(deg)": 60.00949441893482,
        "Satellite Name": "Starlink Shell 3 1717",
        "Satellite Number": 1717,
        "Semi-Major Axis(m)": 6938478.169268562,
        "Time(s)": 910
    },
    {
        "Altitude(m)": 565817.0653835787,
        "Argument of Periapsis(deg)": -0.03648229459707827,
        "Eccentricity": 0.0,
        "Inclination(deg)": 97.0,
        "Latitude(deg)": 16.82991650911918,
        "Longitude(deg)": 138.3133613838049,
        "Mean Anomaly(deg)": 163.061010188864,
        "RAAN(deg)": 60.00959875320882,
        "Satellite Name": "Starlink Shell 3 1717",
        "Satellite Number": 1717,
        "Semi-Major Axis(m)": 6938478.169268562,
        "Time(s)": 920
    },
    {
        "Altitude(m)": 565787.3240419751,
        "Argument of Periapsis(deg)": -0.0368788412774813,
        "Eccentricity": 0.0,
        "Inclination(deg)": 97.0,
        "Latitude(deg)": 16.20619479145885,
        "Longitude(deg)": 138.18876568823714,
        "Mean Anomaly(deg)": 163.68648638656904,
        "RAAN(deg)": 60.009703087482826,
        "Satellite Name": "Starlink Shell 3 1717",
        "Satellite Number": 1717,
        "Semi-Major Axis(m)": 6938478.169268562,
        "Time(s)": 930
    },
    {
        "Altitude(m)": 565761.4493830942,
        "Argument of Periapsis(deg)": -0.037275387957884314,
        "Eccentricity": 0.0,
        "Inclination(deg)": 97.0,
        "Latitude(deg)": 15.582408725772277,
        "Longitude(deg)": 138.0646888218688,
        "Mean Anomaly(deg)": 164.31196258427408,
        "RAAN(deg)": 60.00980742175684,
        "Satellite Name": "Starlink Shell 3 1717",
        "Satellite Number": 1717,
        "Semi-Major Axis(m)": 6938478.169268562,
        "Time(s)": 940
    }
]